[{"OBJECT_NAME":"ONEWEB-0343","OBJECT_ID":"2021-083Z","EPOCH":"2025-07-31T00:39:14.005152","MEAN_MOTION":13.18687456,"ECCENTRICITY":0.0001553,"INCLINATION":87.9125,"RA_OF_ASC_NODE":39.2439,"ARG_OF_PERICENTER":70.2772,"MEAN_ANOMALY":289.8528,"EPHEMERIS_TYPE":0,"CLASSIFICATION_TYPE":"U","NORAD_CAT_ID":49209,"ELEMENT_SET_NO":999,"REV_AT_EPOCH":18900,"BSTAR":0.00014547,"MEAN_MOTION_DOT":7.0e-7,"MEAN_MOTION_DDOT":0},{"OBJECT_NAME":"ONEWEB-0344","OBJECT_ID":"2021-083AA","EPOCH":"2025-07-31T04:24:26.623008","MEAN_MOTION":13.13470087,"ECCENTRICITY":0.0001332,"INCLINATION":87.8968,"RA_OF_ASC_NODE":24.0491,"ARG_OF_PERICENTER":88.9291,"MEAN_ANOMALY":271.199,"EPHEMERIS_TYPE":0,"CLASSIFICATION_TYPE":"U","NORAD_CAT_ID":49210,"ELEMENT_SET_NO":999,"REV_AT_EPOCH":19005,"BSTAR":-0.00018339,"MEAN_MOTION_DOT":-5.4e-7,"MEAN_MOTION_DDOT":0},{"OBJECT_NAME":"ONEWEB-0345","OBJECT_ID":"2021-083AB","EPOCH":"2025-07-30T22:43:10.465824","MEAN_MOTION":13.13467929,"ECCENTRICITY":0.0001285,"INCLINATION":87.8965,"RA_OF_ASC_NODE":24.0481,"ARG_OF_PERICENTER":87.8961,"MEAN_ANOMALY":272.2315,"EPHEMERIS_TYPE":0,"CLASSIFICATION_TYPE":"U","NORAD_CAT_ID":49211,"ELEMENT_SET_NO":999,"REV_AT_EPOCH":18873,"BSTAR":0.00022194,"MEAN_MOTION_DOT":9.4e-7,"MEAN_MOTION_DDOT":0},{"OBJECT_NAME":"ONEWEB-0346","OBJECT_ID":"2021-083AC","EPOCH":"2025-07-30T21:13:46.009920","MEAN_MOTION":13.18685882,"ECCENTRICITY":0.0001878,"INCLINATION":87.9127,"RA_OF_ASC_NODE":39.2945,"ARG_OF_PERICENTER":109.3241,"MEAN_ANOMALY":250.8094,"EPHEMERIS_TYPE":0,"CLASSIFICATION_TYPE":"U","NORAD_CAT_ID":49212,"ELEMENT_SET_NO":999,"REV_AT_EPOCH":18763,"BSTAR":-1.2936e-5,"MEAN_MOTION_DOT":8.0e-8,"MEAN_MOTION_DDOT":0},{"OBJECT_NAME":"ONEWEB-0350","OBJECT_ID":"2021-083AE","EPOCH":"2025-07-31T04:25:39.256032","MEAN_MOTION":13.13468967,"ECCENTRICITY":0.0001441,"INCLINATION":87.8968,"RA_OF_ASC_NODE":23.9919,"ARG_OF_PERICENTER":91.9229,"MEAN_ANOMALY":268.2065,"EPHEMERIS_TYPE":0,"CLASSIFICATION_TYPE":"U","NORAD_CAT_ID":49214,"ELEMENT_SET_NO":999,"REV_AT_EPOCH":19009,"BSTAR":-0.00034279,"MEAN_MOTION_DOT":-1.12e-6,"MEAN_MOTION_DDOT":0},{"OBJECT_NAME":"ONEWEB-0351","OBJECT_ID":"2021-083AF","EPOCH":"2025-07-30T19:45:15.565248","MEAN_MOTION":13.2080138,"ECCENTRICITY":0.0002192,"INCLINATION":87.9294,"RA_OF_ASC_NODE":338.4574,"ARG_OF_PERICENTER":74.1933,"MEAN_ANOMALY":285.9442,"EPHEMERIS_TYPE":0,"CLASSIFICATION_TYPE":"U","NORAD_CAT_ID":49215,"ELEMENT_SET_NO":999,"REV_AT_EPOCH":19435,"BSTAR":0.0077936,"MEAN_MOTION_DOT":3.184e-5,"MEAN_MOTION_DDOT":0},{"OBJECT_NAME":"ONEWEB-0352","OBJECT_ID":"2021-083AG","EPOCH":"2025-07-31T00:18:14.706144","MEAN_MOTION":13.13469193,"ECCENTRICITY":0.0001906,"INCLINATION":87.8967,"RA_OF_ASC_NODE":24.0681,"ARG_OF_PERICENTER":77.497,"MEAN_ANOMALY":282.6372,"EPHEMERIS_TYPE":0,"CLASSIFICATION_TYPE":"U","NORAD_CAT_ID":49216,"ELEMENT_SET_NO":999,"REV_AT_EPOCH":19016,"BSTAR":0.00081388,"MEAN_MOTION_DOT":3.1e-6,"MEAN_MOTION_DDOT":0},{"OBJECT_NAME":"ONEWEB-0354","OBJECT_ID":"2021-083AH","EPOCH":"2025-07-31T01:49:08.402016","MEAN_MOTION":13.20771297,"ECCENTRICITY":0.0001595,"INCLINATION":87.9294,"RA_OF_ASC_NODE":338.4061,"ARG_OF_PERICENTER":101.6058,"MEAN_ANOMALY":258.5255,"EPHEMERIS_TYPE":0,"CLASSIFICATION_TYPE":"U","NORAD_CAT_ID":49217,"ELEMENT_SET_NO":999,"REV_AT_EPOCH":19573,"BSTAR":0.00022479,"MEAN_MOTION_DOT":1.04e-6,"MEAN_MOTION_DDOT":0},{"OBJECT_NAME":"ONEWEB-0357","OBJECT_ID":"2021-083AK","EPOCH":"2025-07-30T22:06:25.181856","MEAN_MOTION":13.20771166,"ECCENTRICITY":0.0001793,"INCLINATION":87.9282,"RA_OF_ASC_NODE":338.441,"ARG_OF_PERICENTER":92.966,"MEAN_ANOMALY":267.1678,"EPHEMERIS_TYPE":0,"CLASSIFICATION_TYPE":"U","NORAD_CAT_ID":49219,"ELEMENT_SET_NO":999,"REV_AT_EPOCH":19440,"BSTAR":0.00029366,"MEAN_MOTION_DOT":1.32e-6,"MEAN_MOTION_DDOT":0},{"OBJECT_NAME":"ONEWEB-0332","OBJECT_ID":"2021-090A","EPOCH":"2025-07-31T03:41:29.662656","MEAN_MOTION":13.14504095,"ECCENTRICITY":0.0002021,"INCLINATION":87.9068,"RA_OF_ASC_NODE":353.601,"ARG_OF_PERICENTER":91.7519,"MEAN_ANOMALY":268.3842,"EPHEMERIS_TYPE":0,"CLASSIFICATION_TYPE":"U","NORAD_CAT_ID":49279,"ELEMENT_SET_NO":999,"REV_AT_EPOCH":18540,"BSTAR":0.00065461,"MEAN_MOTION_DOT":2.55e-6,"MEAN_MOTION_DDOT":0},{"OBJECT_NAME":"ONEWEB-0347","OBJECT_ID":"2021-090B","EPOCH":"2025-07-30T21:52:46.655904","MEAN_MOTION":13.20771098,"ECCENTRICITY":0.0002257,"INCLINATION":87.9291,"RA_OF_ASC_NODE":338.4529,"ARG_OF_PERICENTER":98.0411,"MEAN_ANOMALY":262.0978,"EPHEMERIS_TYPE":0,"CLASSIFICATION_TYPE":"U","NORAD_CAT_ID":49280,"ELEMENT_SET_NO":999,"REV_AT_EPOCH":18863,"BSTAR":0.00012311,"MEAN_MOTION_DOT":6.3e-7,"MEAN_MOTION_DDOT":0},{"OBJECT_NAME":"ONEWEB-0349","OBJECT_ID":"2021-090C","EPOCH":"2025-07-30T20:49:09.234336","MEAN_MOTION":13.20769941,"ECCENTRICITY":0.0001822,"INCLINATION":87.9283,"RA_OF_ASC_NODE":338.4663,"ARG_OF_PERICENTER":95.6088,"MEAN_ANOMALY":264.5253,"EPHEMERIS_TYPE":0,"CLASSIFICATION_TYPE":"U","NORAD_CAT_ID":49281,"ELEMENT_SET_NO":999,"REV_AT_EPOCH":18741,"BSTAR":5.2081e-5,"MEAN_MOTION_DOT":3.4e-7,"MEAN_MOTION_DDOT":0},{"OBJECT_NAME":"ONEWEB-0353","OBJECT_ID":"2021-090D","EPOCH":"2025-07-31T03:30:04.371552","MEAN_MOTION":13.14504193,"ECCENTRICITY":0.0002074,"INCLINATION":87.9069,"RA_OF_ASC_NODE":353.5894,"ARG_OF_PERICENTER":94.0551,"MEAN_ANOMALY":266.0815,"EPHEMERIS_TYPE":0,"CLASSIFICATION_TYPE":"U","NORAD_CAT_ID":49282,"ELEMENT_SET_NO":999,"REV_AT_EPOCH":18669,"BSTAR":0.00051127,"MEAN_MOTION_DOT":2.02e-6,"MEAN_MOTION_DDOT":0},{"OBJECT_NAME":"ONEWEB-0356","OBJECT_ID":"2021-090E","EPOCH":"2025-07-30T20:46:52.253184","MEAN_MOTION":13.20771098,"ECCENTRICITY":0.0002375,"INCLINATION":87.9286,"RA_OF_ASC_NODE":338.4574,"ARG_OF_PERICENTER":119.0094,"MEAN_ANOMALY":241.1277,"EPHEMERIS_TYPE":0,"CLASSIFICATION_TYPE":"U","NORAD_CAT_ID":49283,"ELEMENT_SET_NO":999,"REV_AT_EPOCH":18741,"BSTAR":-5.8019e-7,"MEAN_MOTION_DOT":1.3e-7,"MEAN_MOTION_DDOT":0}]
