ONEWEB-0343             
1 49209U 21083Z   25212.02724543  .00000070  00000+0  14547-3 0  9997
2 49209  87.9125  39.2439 0001553  70.2772 289.8528 13.18687456189006
ONEWEB-0344             
1 49210U 21083AA  25212.18364147 -.00000054  00000+0 -18339-3 0  9993
2 49210  87.8968  24.0491 0001332  88.9291 271.1990 13.13470087190058
ONEWEB-0345             
1 49211U 21083AB  25211.94664891  .00000094  00000+0  22194-3 0  9992
2 49211  87.8965  24.0481 0001285  87.8961 272.2315 13.13467929188730
ONEWEB-0346             
1 49212U 21083AC  25211.88456030  .00000008  00000+0 -12936-4 0  9990
2 49212  87.9127  39.2945 0001878 109.3241 250.8094 13.18685882187633
ONEWEB-0350             
1 49214U 21083AE  25212.18448213 -.00000112  00000+0 -34279-3 0  9990
2 49214  87.8968  23.9919 0001441  91.9229 268.2065 13.13468967190099
ONEWEB-0351             
1 49215U 21083AF  25211.82309682  .00003184  00000+0  77936-2 0  9993
2 49215  87.9294 338.4574 0002192  74.1933 285.9442 13.20801380194359
ONEWEB-0352             
1 49216U 21083AG  25212.01267021  .00000310  00000+0  81388-3 0  9991
2 49216  87.8967  24.0681 0001906  77.4970 282.6372 13.13469193190167
ONEWEB-0354             
1 49217U 21083AH  25212.07579169  .00000104  00000+0  22479-3 0  9994
2 49217  87.9294 338.4061 0001595 101.6058 258.5255 13.20771297195736
ONEWEB-0357             
1 49219U 21083AK  25211.92112479  .00000132  00000+0  29366-3 0  9999
2 49219  87.9282 338.4410 0001793  92.9660 267.1678 13.20771166194407
ONEWEB-0332             
1 49279U 21090A   25212.15381554  .00000255  00000+0  65461-3 0  9993
2 49279  87.9068 353.6010 0002021  91.7519 268.3842 13.14504095185409
ONEWEB-0347             
1 49280U 21090B   25211.91165111  .00000063  00000+0  12311-3 0  9990
2 49280  87.9291 338.4529 0002257  98.0411 262.0978 13.20771098188632
ONEWEB-0349             
1 49281U 21090C   25211.86746799  .00000034  00000+0  52081-4 0  9999
2 49281  87.9283 338.4663 0001822  95.6088 264.5253 13.20769941187415
ONEWEB-0353             
1 49282U 21090D   25212.14588393  .00000202  00000+0  51127-3 0  9992
2 49282  87.9069 353.5894 0002074  94.0551 266.0815 13.14504193186699
ONEWEB-0356             
1 49283U 21090E   25211.86588256  .00000013  00000+0 -58019-6 0  9990
2 49283  87.9286 338.4574 0002375 119.0094 241.1277 13.20771098187416
